{"type": "FeatureCollection", "features": [{"type": "Feature", "properties": {"norad_id": 50032, "name": "COSMOS 1408 DEB", "group": "cosmos-1408-debris", "lat": 76.22332922772767, "lon": 87.18590629234437, "alt_km": 426.8781856923515, "timestamp": "2025-12-16T03:53:27.325920+00:00", "meta": {"OBJECT_NAME": "COSMOS 1408 DEB", "OBJECT_ID": "1982-092RU", "EPOCH": "2025-12-15T04:14:48.950880", "MEAN_MOTION": 15.45720656, "ECCENTRICITY": 0.00154709, "INCLINATION": 82.5645, "RA_OF_ASC_NODE": 56.0111, "ARG_OF_PERICENTER": 199.3332, "MEAN_ANOMALY": 160.7333, "EPHEMERIS_TYPE": 0, "CLASSIFICATION_TYPE": "U", "NORAD_CAT_ID": 50032, "ELEMENT_SET_NO": 999, "REV_AT_EPOCH": 22641, "BSTAR": 8.3312552e-05, "MEAN_MOTION_DOT": 4.083e-05, "MEAN_MOTION_DDOT": 0}, "tle": {"line1": "1 50032U 82092RU  25349.17695545  .00004083  00000+0  83313-4 0  9992", "line2": "2 50032  82.5645  56.0111 0015470 199.3332 160.7333 15.45720656226412"}}, "geometry": {"type": "Point", "coordinates": [87.18590629234437, 76.22332922772767]}}, {"type": "Feature", "properties": {"norad_id": 50058, "name": "COSMOS 1408 DEB", "group": "cosmos-1408-debris", "lat": 31.491283736123897, "lon": -118.79896701257131, "alt_km": 368.24149959507304, "timestamp": "2025-12-16T03:53:27.325943+00:00", "meta": {"OBJECT_NAME": "COSMOS 1408 DEB", "OBJECT_ID": "1982-092SW", "EPOCH": "2025-12-14T15:57:00.095616", "MEAN_MOTION": 15.64237025, "ECCENTRICITY": 0.00162597, "INCLINATION": 82.6133, "RA_OF_ASC_NODE": 67.3271, "ARG_OF_PERICENTER": 92.5268, "MEAN_ANOMALY": 267.7853, "EPHEMERIS_TYPE": 0, "CLASSIFICATION_TYPE": "U", "NORAD_CAT_ID": 50058, "ELEMENT_SET_NO": 999, "REV_AT_EPOCH": 22834, "BSTAR": 0.00029284598, "MEAN_MOTION_DOT": 0.00028132, "MEAN_MOTION_DDOT": 0}, "tle": {"line1": "1 50058U 82092SW  25348.66458444  .00028132  00000+0  29285-3 0  9996", "line2": "2 50058  82.6133  67.3271 0016259  92.5268 267.7853 15.64237025228346"}}, "geometry": {"type": "Point", "coordinates": [-118.79896701257131, 31.491283736123897]}}, {"type": "Feature", "properties": {"norad_id": 50404, "name": "COSMOS 1408 DEB", "group": "cosmos-1408-debris", "lat": 1.570166250584702, "lon": -148.25628228061368, "alt_km": 643.2293324776447, "timestamp": "2025-12-16T03:53:27.325956+00:00", "meta": {"OBJECT_NAME": "COSMOS 1408 DEB", "OBJECT_ID": "1982-092ADS", "EPOCH": "2025-12-15T02:30:28.877760", "MEAN_MOTION": 15.14190671, "ECCENTRICITY": 0.01709008, "INCLINATION": 82.2038, "RA_OF_ASC_NODE": 212.6121, "ARG_OF_PERICENTER": 190.7536, "MEAN_ANOMALY": 169.0027, "EPHEMERIS_TYPE": 0, "CLASSIFICATION_TYPE": "U", "NORAD_CAT_ID": 50404, "ELEMENT_SET_NO": 999, "REV_AT_EPOCH": 21229, "BSTAR": 0.0019887471, "MEAN_MOTION_DOT": 0.00052709, "MEAN_MOTION_DDOT": 0}, "tle": {"line1": "1 50404U 82092ADS 25349.10450090  .00052709  00000+0  19887-2 0  9993", "line2": "2 50404  82.2038 212.6121 0170900 190.7536 169.0027 15.14190671212297"}}, "geometry": {"type": "Point", "coordinates": [-148.25628228061368, 1.570166250584702]}}, {"type": "Feature", "properties": {"norad_id": 50621, "name": "COSMOS 1408 DEB", "group": "cosmos-1408-debris", "lat": 70.75454348424282, "lon": 92.56596027299602, "alt_km": 382.47190121823405, "timestamp": "2025-12-16T03:53:27.325968+00:00", "meta": {"OBJECT_NAME": "COSMOS 1408 DEB", "OBJECT_ID": "1982-092ALR", "EPOCH": "2025-12-15T07:31:38.940096", "MEAN_MOTION": 15.56807649, "ECCENTRICITY": 0.00289774, "INCLINATION": 82.5705, "RA_OF_ASC_NODE": 71.5008, "ARG_OF_PERICENTER": 143.0055, "MEAN_ANOMALY": 217.3206, "EPHEMERIS_TYPE": 0, "CLASSIFICATION_TYPE": "U", "NORAD_CAT_ID": 50621, "ELEMENT_SET_NO": 999, "REV_AT_EPOCH": 22290, "BSTAR": 0.00028681027, "MEAN_MOTION_DOT": 0.00021009, "MEAN_MOTION_DDOT": 0}, "tle": {"line1": "1 50621U 82092ALR 25349.31364514  .00021009  00000+0  28681-3 0  9994", "line2": "2 50621  82.5705  71.5008 0028977 143.0055 217.3206 15.56807649222902"}}, "geometry": {"type": "Point", "coordinates": [92.56596027299602, 70.75454348424282]}}]}